[{"OBJECT_NAME":"STARLINK-31550","OBJECT_ID":"2024-057U","EPOCH":"2026-03-09T08:30:09.303840","MEAN_MOTION":15.27581044,"ECCENTRICITY":0.00013198,"INCLINATION":43.0001,"RA_OF_ASC_NODE":189.319,"ARG_OF_PERICENTER":268.8625,"MEAN_ANOMALY":91.2076,"EPHEMERIS_TYPE":0,"CLASSIFICATION_TYPE":"U","NORAD_CAT_ID":59338,"ELEMENT_SET_NO":999,"REV_AT_EPOCH":10978,"BSTAR":-8.2223334e-5,"MEAN_MOTION_DOT":-2.524e-5,"MEAN_MOTION_DDOT":0},{"OBJECT_NAME":"CZ-2C R\/B","OBJECT_ID":"2014-014B","EPOCH":"2026-03-09T23:01:00.862464","MEAN_MOTION":15.34922702,"ECCENTRICITY":0.00700559,"INCLINATION":98.3314,"RA_OF_ASC_NODE":172.135,"ARG_OF_PERICENTER":276.2597,"MEAN_ANOMALY":83.0667,"EPHEMERIS_TYPE":0,"CLASSIFICATION_TYPE":"U","NORAD_CAT_ID":39625,"ELEMENT_SET_NO":999,"REV_AT_EPOCH":65564,"BSTAR":0.0004934259,"MEAN_MOTION_DOT":0.00018031,"MEAN_MOTION_DDOT":0}]
